*******************************************************************************
JPL/HORIZONS               4397 Jalopez (1981 JS1)         2023-Sep-04 11:29:00
Rec #:    4397 (+COV) Soln.date: 2023-Aug-23_18:18:29   # obs: 3289 (1977-2023)
 
IAU76/J2000 helio. ecliptic osc. elements (au, days, deg., period=Julian yrs):
 
  EPOCH=  2457688.5 ! 2016-Oct-27.00 (TDB)         Residual RMS= .24403
   EC= .1191955112442917   QR= 2.035431605516224   TP= 2457384.7775186878
   OM= 323.3328810902148   W=  208.1765957491151   IN= 5.467399677412371
   A= 2.310877875283799    MA= 85.21489658186348   ADIST= 2.586324145051374
   PER= 3.51296            N= .280568288           ANGMOM= .025963467
   DAN= 2.5455             DDN= 2.06145            L= 171.4008699
   B= -2.5786096           MOID= 1.04228997        TP= 2015-Dec-28.2775186878
 
Asteroid physical parameters (km, seconds, rotational period in hours):
   GM= n.a.                RAD= 2.275              ROTPER= n.a.
   H= 13.97                G= .150                 B-V= n.a.
                           ALBEDO= .282            STYP= n.a.

ASTEROID comments: 
1: soln ref.= JPL#50, OCC=0
2: source=ORB
*******************************************************************************


*******************************************************************************
Ephemeris / API_USER Mon Sep  4 11:29:00 2023 Pasadena, USA      / Horizons
*******************************************************************************
Target body name: 4397 Jalopez (1981 JS1)         {source: JPL#50}
Center body name: Solar System Barycenter (0)     {source: DE441}
Center-site name: BODY CENTER
*******************************************************************************
Start time      : A.D. 2023-Aug-12 00:00:00.0000 TDB
Stop  time      : A.D. 2023-Aug-13 00:00:00.0000 TDB
Step-size       : 2880 minutes
*******************************************************************************
Center geodetic : 0.0, 0.0, 0.0                   {E-lon(deg),Lat(deg),Alt(km)}
Center cylindric: 0.0, 0.0, 0.0                   {E-lon(deg),Dxy(km),Dz(km)}
Center radii    : (undefined)
Small perturbers: Yes                             {source: SB441-N16}
Output units    : KM-S
Calendar mode   : Mixed Julian/Gregorian
Output type     : GEOMETRIC cartesian states
Output format   : 2 (position and velocity)
Reference frame : Ecliptic of J2000.0
*******************************************************************************
Initial IAU76/J2000 heliocentric ecliptic osculating elements (au, days, deg.):
  EPOCH=  2457688.5 ! 2016-Oct-27.00 (TDB)         Residual RMS= .24403        
   EC= .1191955112442917   QR= 2.035431605516224   TP= 2457384.7775186878      
   OM= 323.3328810902148   W=  208.1765957491151   IN= 5.467399677412371       
  Equivalent ICRF heliocentric cartesian coordinates (au, au/d):
   X= 2.027336062692592E-02  Y=-2.052734389125340E+00  Z=-1.082330516145738E+00
  VX= 1.118103082605634E-02 VY=-1.397876827956039E-03 VZ=-1.739553558564221E-05
Asteroid physical parameters (km, seconds, rotational period in hours):        
   GM= n.a.                RAD= 2.275              ROTPER= n.a.                
   H= 13.97                G= .150                 B-V= n.a.                   
                           ALBEDO= .282            STYP= n.a.                  
*******************************************************************************
JDTDB
   X     Y     Z
   VX    VY    VZ
*******************************************************************************
$$SOE
2460168.500000000 = A.D. 2023-Aug-12 00:00:00.0000 TDB 
 X =-1.385825920782224E+08 Y =-2.980766515423058E+08 Z =-3.068179214731495E+07
 VX= 1.757716013916741E+01 VY=-1.065331108892011E+01 VZ= 1.892158031864035E-01
$$EOE
*******************************************************************************
 
TIME

  Barycentric Dynamical Time ("TDB" or T_eph) output was requested. This
continuous coordinate time is equivalent to the relativistic proper time
of a clock at rest in a reference frame co-moving with the solar system
barycenter but outside the system's gravity well. It is the independent
variable in the solar system relativistic equations of motion.

  TDB runs at a uniform rate of one SI second per second and is independent
of irregularities in Earth's rotation.
 
CALENDAR SYSTEM

  Mixed calendar mode was active such that calendar dates after AD 1582-Oct-15
(if any) are in the modern Gregorian system. Dates prior to 1582-Oct-5 (if any)
are in the Julian calendar system, which is automatically extended for dates
prior to its adoption on 45-Jan-1 BC.  The Julian calendar is useful for
matching historical dates. The Gregorian calendar more accurately corresponds
to the Earth's orbital motion and seasons. A "Gregorian-only" calendar mode is
available if such physical events are the primary interest.

REFERENCE FRAME AND COORDINATES

  Ecliptic at the standard reference epoch

    Reference epoch: J2000.0
    X-Y plane: adopted Earth orbital plane at the reference epoch
               Note: IAU76 obliquity of 84381.448 arcseconds wrt ICRF X-Y plane
    X-axis   : ICRF
    Z-axis   : perpendicular to the X-Y plane in the directional (+ or -) sense
               of Earth's north pole at the reference epoch.

  Symbol meaning:

    JDTDB    Julian Day Number, Barycentric Dynamical Time
      X      X-component of position vector (km)
      Y      Y-component of position vector (km)
      Z      Z-component of position vector (km)
      VX     X-component of velocity vector (km/sec)                           
      VY     Y-component of velocity vector (km/sec)                           
      VZ     Z-component of velocity vector (km/sec)                           

ABERRATIONS AND CORRECTIONS

 Geometric state vectors have NO corrections or aberrations applied.

Computations by ...

    Solar System Dynamics Group, Horizons On-Line Ephemeris System
    4800 Oak Grove Drive, Jet Propulsion Laboratory
    Pasadena, CA  91109   USA

    General site: https://ssd.jpl.nasa.gov/
    Mailing list: https://ssd.jpl.nasa.gov/email_list.html
    System news : https://ssd.jpl.nasa.gov/horizons/news.html
    User Guide  : https://ssd.jpl.nasa.gov/horizons/manual.html
    Connect     : browser        https://ssd.jpl.nasa.gov/horizons/app.html#/x
                  API            https://ssd-api.jpl.nasa.gov/doc/horizons.html
                  command-line   telnet ssd.jpl.nasa.gov 6775
                  e-mail/batch   https://ssd.jpl.nasa.gov/ftp/ssd/hrzn_batch.txt
                  scripts        https://ssd.jpl.nasa.gov/ftp/ssd/SCRIPTS
    Author      : Jon.D.Giorgini@jpl.nasa.gov
*******************************************************************************
